NORAD_CAT_ID,OBJECT_NAME,OBJECT_TYPE,EPOCH,MEAN_MOTION,ECCENTRICITY,INCLINATION,RA_OF_ASC_NODE,ARG_OF_PERICENTER,MEAN_ANOMALY,BSTAR,MEAN_MOTION_DOT,MEAN_MOTION_DDOT,TLE_LINE0,TLE_LINE1,TLE_LINE2,SEMIMAJOR_AXIS,PERIOD,APOGEE,PERIGEE,DECAYED
54098.0,STARLINK-5217,PAYLOAD,2022-12-28 22:00:00,15.08831226,0.0001649,53.2159,171.5989,57.195,33.9235,-0.00024582,-4.197e-05,0.0,0 STARLINK-5217,1 54098U 22136AZ  22362.91667824 -.00004197  00000-0 -24582-3 0  9995,2 54098  53.2159 171.5989 0001649  57.1950  33.9235 15.08831226  1305,6917.906999999997,95.438,540.913,538.631,0.0
54098.0,STARLINK-5217,PAYLOAD,2022-12-29 14:00:01,15.08824313,0.0001531999999999,53.216,168.605,64.935,49.3284,0.0014112,0.00022233,0.0,0 STARLINK-5217,1 54098U 22136AZ  22363.58334491  .00022233  00000-0  14112-2 0  9996,2 54098  53.2160 168.6050 0001532  64.9350  49.3284 15.08824313  1308,6917.928000000001,95.439,540.8530000000002,538.734,0.0
54098.0,STARLINK-5217,PAYLOAD,2022-12-30 00:00:00,15.0885253,0.0001657,53.2154,166.7355,58.6549,160.0962,0.00042675,6.513e-05,0.0,0 STARLINK-5217,1 54098U 22136AZ  22364.00001157  .00006513  00000-0  42675-3 0  9993,2 54098  53.2154 166.7355 0001657  58.6549 160.0962 15.08852530 11482,6917.842,95.437,540.8530000000002,538.561,0.0
54098.0,STARLINK-5217,PAYLOAD,2022-12-30 14:00:01,15.08880755,0.0001588999999999,53.2155,164.116,66.1168,82.9599,-0.0014887,-0.00023929,0.0,0 STARLINK-5217,1 54098U 22136AZ  22364.58334491 -.00023929  00000-0 -14887-2 0  9991,2 54098  53.2155 164.1160 0001589  66.1168  82.9599 15.08880755  1302,6917.755999999999,95.435,540.72,538.5219999999998,0.0
54098.0,STARLINK-5217,PAYLOAD,2022-12-31 03:38:59,15.08858586,0.0001598,53.2176,161.5622,66.4651,293.6509,0.00016764,2.382e-05,0.0,0 STARLINK-5217,1 54098U 22136AZ  22365.15207457  .00002382  00000-0  16764-3 0  9991,2 54098  53.2176 161.5622 0001598  66.4651 293.6509 15.08858586 11657,6917.824000000001,95.436,540.794,538.5830000000002,0.0
54098.0,STARLINK-5217,PAYLOAD,2022-12-31 10:00:31,15.08859219,0.0001565999999999,53.2171,160.373,64.3544,295.761,0.0001618,2.289e-05,0.0,0 STARLINK-5217,1 54098U 22136AZ  22365.41703106  .00002289  00000-0  16180-3 0  9990,2 54098  53.2171 160.3730 0001566  64.3544 295.7610 15.08859219 11225,6917.821999999999,95.436,540.77,538.6030000000002,0.0
54098.0,STARLINK-5217,PAYLOAD,2022-12-31 19:32:51,15.08822061,0.0001733999999999,53.2172,158.5887,66.178,293.9394,0.00046309,7.086e-05,0.0,0 STARLINK-5217,1 54098U 22136AZ  22365.81448181  .00007086  00000-0  46309-3 0  9999,2 54098  53.2172 158.5887 0001734  66.1780 293.9394 15.08822061 11287,6917.935,95.439,541.0,538.601,0.0
54098.0,STARLINK-5217,PAYLOAD,2023-01-01 09:51:19,15.08850003,0.0001661,53.2169,155.9119,60.1352,299.9805,-4.5396e-05,-1.011e-05,0.0,0 STARLINK-5217,1 54098U 22136AZ  23001.41063704 -.00001011  00000-0 -45396-4 0  9997,2 54098  53.2169 155.9119 0001661  60.1352 299.9805 15.08850003 11370,6917.85,95.437,540.864,538.566,0.0
54098.0,STARLINK-5217,PAYLOAD,2023-01-01 19:23:38,15.08846089,0.0001595999999999,53.2167,154.1278,60.2989,299.8162,-0.0001257,-2.288e-05,0.0,0 STARLINK-5217,1 54098U 22136AZ  23001.80808106 -.00002288  00000-0 -12570-3 0  9997,2 54098  53.2167 154.1278 0001596  60.2989 299.8162 15.08846089 11430,6917.861999999999,95.437,540.831,538.623,0.0
54098.0,STARLINK-5217,PAYLOAD,2023-01-02 03:20:33,15.08850126,0.0001619,53.2173,152.6414,61.4489,298.6665,-6.5657e-05,-1.333e-05,0.0,0 STARLINK-5217,1 54098U 22136AZ  23002.13927424 -.00001333  00000-0 -65657-4 0  9994,2 54098  53.2173 152.6414 0001619  61.4489 298.6665 15.08850126 11955,6917.849,95.437,540.8340000000002,538.594,0.0
54098.0,STARLINK-5217,PAYLOAD,2023-01-02 09:42:05,15.08849312,0.0001421,53.218,151.4513,63.0424,297.0713,-5.476e-05,-1.16e-05,0.0,0 STARLINK-5217,1 54098U 22136AZ  23002.40423123 -.00001160  00000-0 -54760-4 0  9992,2 54098  53.2180 151.4513 0001421  63.0424 297.0713 15.08849312 11523,6917.852,95.437,540.7,538.734,0.0
54098.0,STARLINK-5217,PAYLOAD,2023-01-02 16:03:37,15.0885358,0.000172,53.2177,150.263,55.4881,304.6273,-1.3804e-05,-5.08e-06,0.0,0 STARLINK-5217,1 54098U 22136AZ  23002.66918471 -.00000508  00000-0 -13804-4 0  9994,2 54098  53.2177 150.2630 0001720  55.4881 304.6273 15.08853580 11562,6917.839,95.437,540.894,538.514,0.0
54098.0,STARLINK-5217,PAYLOAD,2023-01-03 09:32:52,15.08831525,0.00016,53.2174,146.99200000000005,58.6464,301.4685,3.3082e-05,2.38e-06,0.0,0 STARLINK-5217,1 54098U 22136AZ  23003.39783430  .00000238  00000-0  33082-4 0  9998,2 54098  53.2174 146.9920 0001600  58.6464 301.4685 15.08831525 11671,6917.906,95.438,540.878,538.664,0.0
54098.0,STARLINK-5217,PAYLOAD,2023-01-03 15:54:25,15.08830505,0.0001612,53.2175,145.8025,58.8759,301.2391,2.0326e-05,3.5e-07,0.0,0 STARLINK-5217,1 54098U 22136AZ  23003.66279645  .00000035  00000-0  20326-4 0  9998,2 54098  53.2175 145.8025 0001612  58.8759 301.2391 15.08830505 12184,6917.909000000002,95.438,540.89,538.659,0.0
54098.0,STARLINK-5217,PAYLOAD,2023-01-04 15:45:11,15.08847948,0.000165,53.2177,141.3423,56.4434,303.6716,-3.1099e-06,-3.38e-06,0.0,0 STARLINK-5217,1 54098U 22136AZ  23004.65638451 -.00000338  00000-0 -31099-5 0  9990,2 54098  53.2177 141.3423 0001650  56.4434 303.6716 15.08847948 12338,6917.856,95.437,540.863,538.58,0.0
54098.0,STARLINK-5217,PAYLOAD,2023-01-05 09:14:25,15.08847771,0.0001574,53.217,138.0705,51.7897,308.3236,0.00010401,1.368e-05,0.0,0 STARLINK-5217,1 54098U 22136AZ  23005.38501700  .00001368  00000-0  10401-3 0  9991,2 54098  53.2170 138.0705 0001574  51.7897 308.3236 15.08847771 11975,6917.857,95.437,540.811,538.633,0.0
54098.0,STARLINK-5217,PAYLOAD,2023-01-05 18:46:44,15.088413699999998,0.0001594,53.217,136.2873,49.1402,310.9729,8.203299999999999e-05,1.018e-05,0.0,0 STARLINK-5217,1 54098U 22136AZ  23005.78246006  .00001018  00000-0  82033-4 0  9993,2 54098  53.2170 136.2873 0001594  49.1402 310.9729 15.08841370 12039,6917.876,95.437,540.844,538.638,0.0
54098.0,STARLINK-5217,PAYLOAD,2023-01-06 09:05:14,15.08830946,0.000168,53.2177,133.6129,64.1811,295.9354,-0.00012707,-2.309e-05,0.0,0 STARLINK-5217,1 54098U 22136AZ  23006.37863542 -.00002309  00000-0 -12707-3 0  9995,2 54098  53.2177 133.6129 0001680  64.1811 295.9354 15.08830946 12592,6917.908,95.438,540.935,538.611,0.0
54098.0,STARLINK-5217,PAYLOAD,2023-01-06 18:37:34,15.08816738,0.0001651,53.2173,131.8275,55.7626,304.3522,-0.00022115,-3.804e-05,0.0,0 STARLINK-5217,1 54098U 22136AZ  23006.77609115 -.00003804  00000-0 -22115-3 0  9998,2 54098  53.2173 131.8275 0001651  55.7626 304.3522 15.08816738 12650,6917.951,95.439,540.9590000000002,538.674,0.0
54098.0,STARLINK-5217,PAYLOAD,2023-01-07 10:31:23,15.08841705,1.17e-05,53.2191,128.8557,318.9105,41.1879,-3.2755e-05,-8.09e-06,0.0,0 STARLINK-5217,1 54098U 22136AZ  23007.43846444 -.00000809  00000-0 -32755-4 0  9994,2 54098  53.2191 128.8557 0000117 318.9105  41.1879 15.08841705 12755,6917.875,95.437,539.821,539.659,0.0
54098.0,STARLINK-5217,PAYLOAD,2023-01-07 16:52:56,15.08833726,1.7e-05,53.2198,127.6658,12.2575,347.8421,-8.0943e-05,-1.575e-05,0.0,0 STARLINK-5217,1 54098U 22136AZ  23007.70343175 -.00001575  00000-0 -80943-4 0  9990,2 54098  53.2198 127.6658 0000170  12.2575 347.8421 15.08833726 12792,6917.9,95.438,539.882,539.6469999999998,0.0
54098.0,STARLINK-5217,PAYLOAD,2023-01-08 10:22:11,15.08826546,9.72e-05,53.219,124.3946,34.8694,325.2362,0.00010049,1.311e-05,0.0,0 STARLINK-5217,1 54098U 22136AZ  23008.43207706  .00001311  00000-0  10049-3 0  9995,2 54098  53.2190 124.3946 0000972  34.8694 325.2362 15.08826546 12437,6917.922,95.438,540.4590000000002,539.114,0.0
54098.0,STARLINK-5217,PAYLOAD,2023-01-09 02:16:02,15.08834517,0.0001148,53.2168,121.4186,42.5125,317.5955,0.00017498,2.498e-05,0.0,0 STARLINK-5217,1 54098U 22136AZ  23009.09447471  .00002498  00000-0  17498-3 0  9995,2 54098  53.2168 121.4186 0001148  42.5125 317.5955 15.08834517 13000,6917.897,95.438,540.556,538.9680000000002,0.0
54098.0,STARLINK-5217,PAYLOAD,2023-01-09 13:23:44,15.08849497,0.0001879,53.2169,119.3371,46.4439,313.6709,-1.4798e-05,-5.24e-06,0.0,0 STARLINK-5217,1 54098U 22136AZ  23009.55815232 -.00000524  00000-0 -14798-4 0  9991,2 54098  53.2169 119.3371 0001879  46.4439 313.6709 15.08849497 12607,6917.851,95.437,541.016,538.4159999999998,0.0
54098.0,STARLINK-5217,PAYLOAD,2023-01-09 16:34:30,15.08849809,0.0001879,53.2171,118.7424,45.0027,315.1117,-5.9867e-05,-1.241e-05,0.0,0 STARLINK-5217,1 54098U 22136AZ  23009.69063306 -.00001241  00000-0 -59867-4 0  9996,2 54098  53.2171 118.7424 0001879  45.0027 315.1117 15.08849809 13091,6917.85,95.437,541.015,538.4159999999998,0.0
54098.0,STARLINK-5217,PAYLOAD,2023-01-10 13:14:32,15.08837262,0.0001714,53.217,114.8775,43.2709,316.8418,-6.8238e-05,-1.374e-05,0.0,0 STARLINK-5217,1 54098U 22136AZ  23010.55176044 -.00001374  00000-0 -68238-4 0  9996,2 54098  53.2170 114.8775 0001714  43.2709 316.8418 15.08837262 13228,6917.889,95.438,540.939,538.568,0.0
54098.0,STARLINK-5217,PAYLOAD,2023-01-11 13:05:18,15.08846571,0.0001802,53.2169,110.4171,44.2253,315.8883,7.120800000000001e-06,-1.75e-06,0.0,0 STARLINK-5217,1 54098U 22136AZ  23011.54534848 -.00000175  00000-0  71208-5 0  9995,2 54098  53.2169 110.4171 0001802  44.2253 315.8883 15.08846571 13375,6917.86,95.437,540.972,538.479,0.0
54098.0,STARLINK-5217,PAYLOAD,2023-01-12 16:06:53,15.08821104,0.0002017,53.2163,105.3632,41.6439,318.4706,-7.6376e-05,-1.503e-05,0.0,0 STARLINK-5217,1 54098U 22136AZ  23012.67145821 -.00001503  00000-0 -76376-4 0  9996,2 54098  53.2163 105.3632 0002017  41.6439 318.4706 15.08821104 13547,6917.938,95.439,541.198,538.408,0.0
54098.0,STARLINK-5217,PAYLOAD,2023-01-13 12:46:53,15.08852153,0.0001692,53.217,101.496,47.0052,313.1082,4.2427e-05,3.87e-06,0.0,0 STARLINK-5217,1 54098U 22136AZ  23013.53256010  .00000387  00000-0  42427-4 0  9992,2 54098  53.2170 101.4960 0001692  47.0052 313.1082 15.08852153 13205,6917.843000000001,95.437,540.879,538.538,0.0
